{
  "type": "FeatureCollection",
  "features": [
    {
      "type": "Feature",
      "properties": {
        "norad_id": 30621,
        "name": "FENGYUN 1C DEB",
        "group": "fengyun-1c-debris",
        "lat": -74.08686541239624,
        "lon": -27.147903628126027,
        "alt_km": 789.0541875034514,
        "timestamp": "2025-12-23T09:49:07.360745+00:00",
        "meta_object_name": "FENGYUN 1C DEB",
        "meta_object_id": "1999-025ANC",
        "meta_epoch": "2025-12-22T07:33:01.039104",
        "meta_mean_motion": 14.03884663,
        "meta_eccentricity": 0.01366765,
        "meta_inclination": 98.698,
        "meta_ra_of_asc_node": 299.3294,
        "meta_arg_of_pericenter": 279.9015,
        "meta_mean_anomaly": 234.7066,
        "meta_ephemeris_type": 0,
        "meta_classification_type": "U",
        "meta_norad_cat_id": 30621,
        "meta_element_set_no": 999,
        "meta_rev_at_epoch": 95724,
        "meta_bstar": 0.0020240679,
        "meta_mean_motion_dot": 3.427e-05,
        "meta_mean_motion_ddot": 0,
        "tle_line1": "1 30621U 99025ANC 25356.31459536  .00003427  00000+0  20241-2 0  9990",
        "tle_line2": "2 30621  98.6980 299.3294 0136676 279.9015 234.7066 14.03884663957242"
      },
      "geometry": {
        "type": "Point",
        "coordinates": [
          -27.147903628126027,
          -74.08686541239624
        ]
      }
    },
    {
      "type": "Feature",
      "properties": {
        "norad_id": 30622,
        "name": "FENGYUN 1C DEB",
        "group": "fengyun-1c-debris",
        "lat": 33.138609011704624,
        "lon": -160.94138519320376,
        "alt_km": 833.8427598603294,
        "timestamp": "2025-12-23T09:49:07.360755+00:00",
        "meta_object_name": "FENGYUN 1C DEB",
        "meta_object_id": "1999-025AND",
        "meta_epoch": "2025-12-20T21:18:30.354048",
        "meta_mean_motion": 14.31337635,
        "meta_eccentricity": 0.0072413,
        "meta_inclination": 101.0011,
        "meta_ra_of_asc_node": 8.5769,
        "meta_arg_of_pericenter": 352.4958,
        "meta_mean_anomaly": 128.3988,
        "meta_ephemeris_type": 0,
        "meta_classification_type": "U",
        "meta_norad_cat_id": 30622,
        "meta_element_set_no": 999,
        "meta_rev_at_epoch": 68914,
        "meta_bstar": 0.0021293,
        "meta_mean_motion_dot": 5.745e-05,
        "meta_mean_motion_ddot": 0,
        "tle_line1": "1 30622U 99025AND 25354.88785132  .00005745  00000+0  21293-2 0  9998",
        "tle_line2": "2 30622 101.0011   8.5769 0072413 352.4958 128.3988 14.31337635689140"
      },
      "geometry": {
        "type": "Point",
        "coordinates": [
          -160.94138519320376,
          33.138609011704624
        ]
      }
    },
    {
      "type": "Feature",
      "properties": {
        "norad_id": 30623,
        "name": "FENGYUN 1C DEB",
        "group": "fengyun-1c-debris",
        "lat": 29.140338195472744,
        "lon": 169.6439926937387,
        "alt_km": 952.5238062319168,
        "timestamp": "2025-12-23T09:49:07.360766+00:00",
        "meta_object_name": "FENGYUN 1C DEB",
        "meta_object_id": "1999-025ANE",
        "meta_epoch": "2025-12-21T18:01:25.554144",
        "meta_mean_motion": 13.29345474,
        "meta_eccentricity": 0.04037504,
        "meta_inclination": 98.823,
        "meta_ra_of_asc_node": 173.1896,
        "meta_arg_of_pericenter": 85.5664,
        "meta_mean_anomaly": 296.5298,
        "meta_ephemeris_type": 0,
        "meta_classification_type": "U",
        "meta_norad_cat_id": 30623,
        "meta_element_set_no": 999,
        "meta_rev_at_epoch": 91336,
        "meta_bstar": 0.00046323769,
        "meta_mean_motion_dot": 3.03e-06,
        "meta_mean_motion_ddot": 0,
        "tle_line1": "1 30623U 99025ANE 25355.75099021  .00000303  00000+0  46324-3 0  9999",
        "tle_line2": "2 30623  98.8230 173.1896 0403750  85.5664 296.5298 13.29345474913369"
      },
      "geometry": {
        "type": "Point",
        "coordinates": [
          169.6439926937387,
          29.140338195472744
        ]
      }
    },
    {
      "type": "Feature",
      "properties": {
        "norad_id": 30624,
        "name": "FENGYUN 1C DEB",
        "group": "fengyun-1c-debris",
        "lat": -5.098009560221342,
        "lon": -100.58396745620969,
        "alt_km": 678.0907469186504,
        "timestamp": "2025-12-23T09:49:07.360778+00:00",
        "meta_object_name": "FENGYUN 1C DEB",
        "meta_object_id": "1999-025ANF",
        "meta_epoch": "2025-12-21T04:26:09.447648",
        "meta_mean_motion": 14.62636214,
        "meta_eccentricity": 0.00232881,
        "meta_inclination": 98.8874,
        "meta_ra_of_asc_node": 77.8232,
        "meta_arg_of_pericenter": 244.6231,
        "meta_mean_anomaly": 115.2557,
        "meta_ephemeris_type": 0,
        "meta_classification_type": "U",
        "meta_norad_cat_id": 30624,
        "meta_element_set_no": 999,
        "meta_rev_at_epoch": 97619,
        "meta_bstar": 0.0029618402,
        "meta_mean_motion_dot": 0.00015094,
        "meta_mean_motion_ddot": 0,
        "tle_line1": "1 30624U 99025ANF 25355.18483157  .00015094  00000+0  29618-2 0  9993",
        "tle_line2": "2 30624  98.8874  77.8232 0023288 244.6231 115.2557 14.62636214976198"
      },
      "geometry": {
        "type": "Point",
        "coordinates": [
          -100.58396745620969,
          -5.098009560221342
        ]
      }
    },
    {
      "type": "Feature",
      "properties": {
        "norad_id": 30625,
        "name": "FENGYUN 1C DEB",
        "group": "fengyun-1c-debris",
        "lat": 57.68363731862241,
        "lon": -60.53960855475901,
        "alt_km": 776.1648386642619,
        "timestamp": "2025-12-23T09:49:07.360788+00:00",
        "meta_object_name": "FENGYUN 1C DEB",
        "meta_object_id": "1999-025ANG",
        "meta_epoch": "2025-12-22T20:13:15.565728",
        "meta_mean_motion": 14.41747552,
        "meta_eccentricity": 0.00482641,
        "meta_inclination": 98.9265,
        "meta_ra_of_asc_node": 313.2551,
        "meta_arg_of_pericenter": 272.7745,
        "meta_mean_anomaly": 86.7919,
        "meta_ephemeris_type": 0,
        "meta_classification_type": "U",
        "meta_norad_cat_id": 30625,
        "meta_element_set_no": 999,
        "meta_rev_at_epoch": 96838,
        "meta_bstar": 0.0039136911,
        "meta_mean_motion_dot": 0.00012927,
        "meta_mean_motion_ddot": 0,
        "tle_line1": "1 30625U 99025ANG 25356.84254127  .00012927  00000+0  39137-2 0  9990",
        "tle_line2": "2 30625  98.9265 313.2551 0048264 272.7745  86.7919 14.41747552968389"
      },
      "geometry": {
        "type": "Point",
        "coordinates": [
          -60.53960855475901,
          57.68363731862241
        ]
      }
    },
    {
      "type": "Feature",
      "properties": {
        "norad_id": 30628,
        "name": "FENGYUN 1C DEB",
        "group": "fengyun-1c-debris",
        "lat": 60.99322404557182,
        "lon": -102.61169874095363,
        "alt_km": 670.43067025245,
        "timestamp": "2025-12-23T09:49:07.360800+00:00",
        "meta_object_name": "FENGYUN 1C DEB",
        "meta_object_id": "1999-025ANK",
        "meta_epoch": "2025-12-22T07:23:05.577216",
        "meta_mean_motion": 14.69307411,
        "meta_eccentricity": 0.00218408,
        "meta_inclination": 99.341,
        "meta_ra_of_asc_node": 273.3997,
        "meta_arg_of_pericenter": 215.3118,
        "meta_mean_anomaly": 144.6638,
        "meta_ephemeris_type": 0,
        "meta_classification_type": "U",
        "meta_norad_cat_id": 30628,
        "meta_element_set_no": 999,
        "meta_rev_at_epoch": 98611,
        "meta_bstar": 0.0028706727,
        "meta_mean_motion_dot": 0.00016985,
        "meta_mean_motion_ddot": 0,
        "tle_line1": "1 30628U 99025ANK 25356.30770344  .00016985  00000+0  28707-2 0  9997",
        "tle_line2": "2 30628  99.3410 273.3997 0021840 215.3118 144.6638 14.69307411986116"
      },
      "geometry": {
        "type": "Point",
        "coordinates": [
          -102.61169874095363,
          60.99322404557182
        ]
      }
    },
    {
      "type": "Feature",
      "properties": {
        "norad_id": 30629,
        "name": "FENGYUN 1C DEB",
        "group": "fengyun-1c-debris",
        "lat": -29.784444076753342,
        "lon": -90.79013671951022,
        "alt_km": 695.3511047058664,
        "timestamp": "2025-12-23T09:49:07.360811+00:00",
        "meta_object_name": "FENGYUN 1C DEB",
        "meta_object_id": "1999-025ANL",
        "meta_epoch": "2025-12-21T18:04:40.031904",
        "meta_mean_motion": 14.59785142,
        "meta_eccentricity": 0.00075668,
        "meta_inclination": 99.2515,
        "meta_ra_of_asc_node": 92.7176,
        "meta_arg_of_pericenter": 178.5163,
        "meta_mean_anomaly": 334.455,
        "meta_ephemeris_type": 0,
        "meta_classification_type": "U",
        "meta_norad_cat_id": 30629,
        "meta_element_set_no": 999,
        "meta_rev_at_epoch": 98021,
        "meta_bstar": 0.0022997791,
        "meta_mean_motion_dot": 0.00010949,
        "meta_mean_motion_ddot": 0,
        "tle_line1": "1 30629U 99025ANL 25355.75324111  .00010949  00000+0  22998-2 0  9993",
        "tle_line2": "2 30629  99.2515  92.7176 0007566 178.5163 334.4550 14.59785142980210"
      },
      "geometry": {
        "type": "Point",
        "coordinates": [
          -90.79013671951022,
          -29.784444076753342
        ]
      }
    }
  ]
}